CCSDS_OMM_VERS = 2.0
CREATION_DATE  = 
ORIGINATOR     = 

OBJECT_NAME    = ATLAS CENTAUR R/B
OBJECT_ID      = 1972-065B
CENTER_NAME    = EARTH
REF_FRAME      = TEME
TIME_SYSTEM    = UTC
MEAN_ELEMENT_THEORY = SGP/SGP4

EPOCH          = 2025-11-29T06:41:21.893568
MEAN_MOTION    = 14.77351420
ECCENTRICITY   = .00345196
INCLINATION    = 34.9998
RA_OF_ASC_NODE = 174.0477
ARG_OF_PERICENTER = 246.2404
MEAN_ANOMALY   = 113.4673

EPHEMERIS_TYPE = 0
CLASSIFICATION_TYPE = U
NORAD_CAT_ID   = 6155
ELEMENT_SET_NO = 999
REV_AT_EPOCH   = 82640
BSTAR          = .14949172E-3
MEAN_MOTION_DOT = .1067E-4
MEAN_MOTION_DDOT = 0

CCSDS_OMM_VERS = 2.0
CREATION_DATE  = 
ORIGINATOR     = 

OBJECT_NAME    = SL-8 R/B
OBJECT_ID      = 1975-112B
CENTER_NAME    = EARTH
REF_FRAME      = TEME
TIME_SYSTEM    = UTC
MEAN_ELEMENT_THEORY = SGP/SGP4

EPOCH          = 2025-11-29T01:22:23.657664
MEAN_MOTION    = 14.38131773
ECCENTRICITY   = .00163037
INCLINATION    = 74.0597
RA_OF_ASC_NODE = 204.0244
ARG_OF_PERICENTER = 317.0385
MEAN_ANOMALY   = 42.9495

EPHEMERIS_TYPE = 0
CLASSIFICATION_TYPE = U
NORAD_CAT_ID   = 8459
ELEMENT_SET_NO = 999
REV_AT_EPOCH   = 61740
BSTAR          = .1024367E-3
MEAN_MOTION_DOT = .285E-5
MEAN_MOTION_DDOT = 0

CCSDS_OMM_VERS = 2.0
CREATION_DATE  = 
ORIGINATOR     = 

OBJECT_NAME    = SL-3 R/B
OBJECT_ID      = 1977-057B
CENTER_NAME    = EARTH
REF_FRAME      = TEME
TIME_SYSTEM    = UTC
MEAN_ELEMENT_THEORY = SGP/SGP4

EPOCH          = 2025-11-29T06:20:51.010656
MEAN_MOTION    = 15.42476679
ECCENTRICITY   = .00065019
INCLINATION    = 97.5683
RA_OF_ASC_NODE = 136.0727
ARG_OF_PERICENTER = 289.6074
MEAN_ANOMALY   = 70.4470

EPHEMERIS_TYPE = 0
CLASSIFICATION_TYPE = U
NORAD_CAT_ID   = 10114
ELEMENT_SET_NO = 999
REV_AT_EPOCH   = 65283
BSTAR          = .29609572E-3
MEAN_MOTION_DOT = .12746E-3
MEAN_MOTION_DDOT = 0

CCSDS_OMM_VERS = 2.0
CREATION_DATE  = 
ORIGINATOR     = 

OBJECT_NAME    = SEASAT 1
OBJECT_ID      = 1978-064A
CENTER_NAME    = EARTH
REF_FRAME      = TEME
TIME_SYSTEM    = UTC
MEAN_ELEMENT_THEORY = SGP/SGP4

EPOCH          = 2025-11-28T18:39:45.009792
MEAN_MOTION    = 14.46036111
ECCENTRICITY   = .00019726
INCLINATION    = 108.0093
RA_OF_ASC_NODE = 273.7440
ARG_OF_PERICENTER = 251.0758
MEAN_ANOMALY   = 109.0174

EPHEMERIS_TYPE = 0
CLASSIFICATION_TYPE = U
NORAD_CAT_ID   = 10967
ELEMENT_SET_NO = 999
REV_AT_EPOCH   = 49192
BSTAR          = .15875017E-3
MEAN_MOTION_DOT = .429E-5
MEAN_MOTION_DDOT = 0

CCSDS_OMM_VERS = 2.0
CREATION_DATE  = 
ORIGINATOR     = 

OBJECT_NAME    = SL-14 R/B
OBJECT_ID      = 1979-011B
CENTER_NAME    = EARTH
REF_FRAME      = TEME
TIME_SYSTEM    = UTC
MEAN_ELEMENT_THEORY = SGP/SGP4

EPOCH          = 2025-11-29T02:30:20.531520
MEAN_MOTION    = 14.91744825
ECCENTRICITY   = .00170632
INCLINATION    = 82.5245
RA_OF_ASC_NODE = 191.9752
ARG_OF_PERICENTER = 37.8177
MEAN_ANOMALY   = 322.4237

EPHEMERIS_TYPE = 0
CLASSIFICATION_TYPE = U
NORAD_CAT_ID   = 11267
ELEMENT_SET_NO = 999
REV_AT_EPOCH   = 51378
BSTAR          = .61724334E-4
MEAN_MOTION_DOT = .649E-5
MEAN_MOTION_DDOT = 0

CCSDS_OMM_VERS = 2.0
CREATION_DATE  = 
ORIGINATOR     = 

OBJECT_NAME    = SL-8 R/B
OBJECT_ID      = 1979-089B
CENTER_NAME    = EARTH
REF_FRAME      = TEME
TIME_SYSTEM    = UTC
MEAN_ELEMENT_THEORY = SGP/SGP4

EPOCH          = 2025-11-29T05:47:14.705952
MEAN_MOTION    = 14.42268455
ECCENTRICITY   = .0014538
INCLINATION    = 74.0688
RA_OF_ASC_NODE = 276.9617
ARG_OF_PERICENTER = 117.0627
MEAN_ANOMALY   = 243.2015

EPHEMERIS_TYPE = 0
CLASSIFICATION_TYPE = U
NORAD_CAT_ID   = 11574
ELEMENT_SET_NO = 999
REV_AT_EPOCH   = 42162
BSTAR          = .98666761E-4
MEAN_MOTION_DOT = .3E-5
MEAN_MOTION_DDOT = 0

CCSDS_OMM_VERS = 2.0
CREATION_DATE  = 
ORIGINATOR     = 

OBJECT_NAME    = SL-14 R/B
OBJECT_ID      = 1980-005B
CENTER_NAME    = EARTH
REF_FRAME      = TEME
TIME_SYSTEM    = UTC
MEAN_ELEMENT_THEORY = SGP/SGP4

EPOCH          = 2025-11-29T06:03:59.912928
MEAN_MOTION    = 14.90765731
ECCENTRICITY   = .00168934
INCLINATION    = 82.5160
RA_OF_ASC_NODE = 42.4890
ARG_OF_PERICENTER = 134.8086
MEAN_ANOMALY   = 225.4510

EPHEMERIS_TYPE = 0
CLASSIFICATION_TYPE = U
NORAD_CAT_ID   = 11672
ELEMENT_SET_NO = 999
REV_AT_EPOCH   = 46152
BSTAR          = .66945286E-4
MEAN_MOTION_DOT = .685E-5
MEAN_MOTION_DDOT = 0

CCSDS_OMM_VERS = 2.0
CREATION_DATE  = 
ORIGINATOR     = 

OBJECT_NAME    = SL-8 R/B
OBJECT_ID      = 1981-003B
CENTER_NAME    = EARTH
REF_FRAME      = TEME
TIME_SYSTEM    = UTC
MEAN_ELEMENT_THEORY = SGP/SGP4

EPOCH          = 2025-11-29T04:32:42.779328
MEAN_MOTION    = 15.06392436
ECCENTRICITY   = .02814541
INCLINATION    = 82.9304
RA_OF_ASC_NODE = 22.6706
ARG_OF_PERICENTER = 167.0538
MEAN_ANOMALY   = 193.8122

EPHEMERIS_TYPE = 0
CLASSIFICATION_TYPE = U
NORAD_CAT_ID   = 12139
ELEMENT_SET_NO = 999
REV_AT_EPOCH   = 29952
BSTAR          = .60774962E-3
MEAN_MOTION_DOT = .2265E-3
MEAN_MOTION_DDOT = 0

CCSDS_OMM_VERS = 2.0
CREATION_DATE  = 
ORIGINATOR     = 

OBJECT_NAME    = SL-3 R/B
OBJECT_ID      = 1981-046B
CENTER_NAME    = EARTH
REF_FRAME      = TEME
TIME_SYSTEM    = UTC
MEAN_ELEMENT_THEORY = SGP/SGP4

EPOCH          = 2025-11-29T07:18:01.184832
MEAN_MOTION    = 15.39196050
ECCENTRICITY   = .00198624
INCLINATION    = 81.2338
RA_OF_ASC_NODE = 50.0036
ARG_OF_PERICENTER = 11.3256
MEAN_ANOMALY   = 348.8428

EPHEMERIS_TYPE = 0
CLASSIFICATION_TYPE = U
NORAD_CAT_ID   = 12465
ELEMENT_SET_NO = 999
REV_AT_EPOCH   = 42297
BSTAR          = .30360621E-3
MEAN_MOTION_DOT = .11911E-3
MEAN_MOTION_DDOT = 0

CCSDS_OMM_VERS = 2.0
CREATION_DATE  = 
ORIGINATOR     = 

OBJECT_NAME    = SL-3 R/B
OBJECT_ID      = 1981-103B
CENTER_NAME    = EARTH
REF_FRAME      = TEME
TIME_SYSTEM    = UTC
MEAN_ELEMENT_THEORY = SGP/SGP4

EPOCH          = 2025-11-29T05:33:34.326720
MEAN_MOTION    = 15.19981297
ECCENTRICITY   = .00111872
INCLINATION    = 81.1587
RA_OF_ASC_NODE = 331.1728
ARG_OF_PERICENTER = 266.2668
MEAN_ANOMALY   = 93.7284

EPHEMERIS_TYPE = 0
CLASSIFICATION_TYPE = U
NORAD_CAT_ID   = 12904
ELEMENT_SET_NO = 999
REV_AT_EPOCH   = 95796
BSTAR          = .31151449E-3
MEAN_MOTION_DOT = .674E-4
MEAN_MOTION_DDOT = 0

CCSDS_OMM_VERS = 2.0
CREATION_DATE  = 
ORIGINATOR     = 

OBJECT_NAME    = SL-3 R/B
OBJECT_ID      = 1982-013B
CENTER_NAME    = EARTH
REF_FRAME      = TEME
TIME_SYSTEM    = UTC
MEAN_ELEMENT_THEORY = SGP/SGP4

EPOCH          = 2025-11-29T06:55:33.957408
MEAN_MOTION    = 15.20895888
ECCENTRICITY   = .00233267
INCLINATION    = 81.1739
RA_OF_ASC_NODE = 278.3519
ARG_OF_PERICENTER = 154.0597
MEAN_ANOMALY   = 206.1809

EPHEMERIS_TYPE = 0
CLASSIFICATION_TYPE = U
NORAD_CAT_ID   = 13068
ELEMENT_SET_NO = 999
REV_AT_EPOCH   = 38908
BSTAR          = .19408953E-3
MEAN_MOTION_DOT = .4347E-4
MEAN_MOTION_DDOT = 0

CCSDS_OMM_VERS = 2.0
CREATION_DATE  = 
ORIGINATOR     = 

OBJECT_NAME    = SL-3 R/B
OBJECT_ID      = 1982-039B
CENTER_NAME    = EARTH
REF_FRAME      = TEME
TIME_SYSTEM    = UTC
MEAN_ELEMENT_THEORY = SGP/SGP4

EPOCH          = 2025-11-29T05:58:23.758176
MEAN_MOTION    = 15.09400375
ECCENTRICITY   = .00307166
INCLINATION    = 81.1746
RA_OF_ASC_NODE = 331.6151
ARG_OF_PERICENTER = 297.7223
MEAN_ANOMALY   = 62.0887

EPHEMERIS_TYPE = 0
CLASSIFICATION_TYPE = U
NORAD_CAT_ID   = 13154
ELEMENT_SET_NO = 999
REV_AT_EPOCH   = 36648
BSTAR          = .17888372E-3
MEAN_MOTION_DOT = .2912E-4
MEAN_MOTION_DDOT = 0

