ATLAS CENTAUR R/B       
1 06155U 72065B   25333.27872562  .00001067  00000+0  14949-3 0  9995
2 06155  34.9998 174.0477 0034519 246.2404 113.4673 14.77351420826404
SL-8 R/B                
1 08459U 75112B   25333.05721826  .00000285  00000+0  10244-3 0  9997
2 08459  74.0597 204.0244 0016303 317.0385  42.9495 14.38131773617405
SL-3 R/B                
1 10114U 77057B   25333.26447929  .00012746  00000+0  29610-3 0  9992
2 10114  97.5683 136.0727 0006501 289.6074  70.4470 15.42476679652838
SEASAT 1                
1 10967U 78064A   25332.77760428  .00000429  00000+0  15875-3 0  9997
2 10967 108.0093 273.7440 0001972 251.0758 109.0174 14.46036111491924
SL-14 R/B               
1 11267U 79011B   25333.10440430  .00000649  00000+0  61724-4 0  9999
2 11267  82.5245 191.9752 0017063  37.8177 322.4237 14.91744825513781
SL-8 R/B                
1 11574U 79089B   25333.24114243  .00000300  00000+0  98667-4 0  9990
2 11574  74.0688 276.9617 0014538 117.0627 243.2015 14.42268455421629
SL-14 R/B               
1 11672U 80005B   25333.25277677  .00000685  00000+0  66945-4 0  9991
2 11672  82.5160  42.4890 0016893 134.8086 225.4510 14.90765731461525
SL-8 R/B                
1 12139U 81003B   25333.18938402  .00022650  00000+0  60775-3 0  9991
2 12139  82.9304  22.6706 0281454 167.0538 193.8122 15.06392436299523
SL-3 R/B                
1 12465U 81046B   25333.30418038  .00011911  00000+0  30361-3 0  9998
2 12465  81.2338  50.0036 0019862  11.3256 348.8428 15.39196050422973
SL-3 R/B                
1 12904U 81103B   25333.23164730  .00006740  00000+0  31151-3 0  9991
2 12904  81.1587 331.1728 0011187 266.2668  93.7284 15.19981297957968
SL-3 R/B                
1 13068U 82013B   25333.28858747  .00004347  00000+0  19409-3 0  9990
2 13068  81.1739 278.3519 0023326 154.0597 206.1809 15.20895888389089
SL-3 R/B                
1 13154U 82039B   25333.24888609  .00002912  00000+0  17888-3 0  9995
2 13154  81.1746 331.6151 0030716 297.7223  62.0887 15.09400375366484
